NORAD_CAT_ID,OBJECT_NAME,OBJECT_TYPE,EPOCH,MEAN_MOTION,ECCENTRICITY,INCLINATION,RA_OF_ASC_NODE,ARG_OF_PERICENTER,MEAN_ANOMALY,BSTAR,MEAN_MOTION_DOT,MEAN_MOTION_DDOT,TLE_LINE0,TLE_LINE1,TLE_LINE2,SEMIMAJOR_AXIS,PERIOD,APOGEE,PERIGEE,DECAYED
53790.0,STARLINK-4734,PAYLOAD,2022-11-16 14:00:01,15.22213416,0.00019,53.2174,302.1379,37.854,199.0565,-0.053641,-0.01151355,0.0,0 STARLINK-4734,1 53790U 22111T   22320.58335648 -.01151355  00000-0 -53641-1 0  9995,2 53790  53.2174 302.1379 0001900  37.8540 199.0565 15.22213416  1306,6877.303000000001,94.599,500.474,497.861,0.0
53790.0,STARLINK-4734,PAYLOAD,2022-11-16 20:00:01,15.21602284,0.0001947,53.2173,300.9917,37.2142,130.1005,-0.054564,-0.01150255,0.0,0 STARLINK-4734,1 53790U 22111T   22320.83334491 -.01150255  00000-0 -54564-1 0  9991,2 53790  53.2173 300.9917 0001947  37.2142 130.1005 15.21602284 10389,6879.144,94.637,502.348,499.67,0.0
53790.0,STARLINK-4734,PAYLOAD,2022-11-16 22:00:08,15.21397903,0.000179,53.2175,300.6097,40.3111,224.1475,-0.054793,-0.01148256,0.0,0 STARLINK-4734,1 53790U 22111T   22320.91675926 -.01148256  00000-0 -54793-1 0  9993,2 53790  53.2175 300.6097 0001790  40.3111 224.1475 15.21397903  1300,6879.76,94.65,502.857,500.394,0.0
53790.0,STARLINK-4734,PAYLOAD,2022-11-17 14:00:01,15.19789729,0.0001671,53.2168,297.5646,39.726,275.6784,-0.058965,-0.01176224,0.0,0 STARLINK-4734,1 53790U 22111T   22321.58334491 -.01176224  00000-0 -58965-1 0  9997,2 53790  53.2168 297.5646 0001671  39.7260 275.6784 15.19789729  1303,6884.613,94.75,507.628,505.327,0.0
53790.0,STARLINK-4734,PAYLOAD,2022-11-17 22:00:00,15.18974249,0.0001776,53.2169,296.0427,34.5028,305.1344,-0.060075,-0.01170661,0.0,0 STARLINK-4734,1 53790U 22111T   22321.91667824 -.01170661  00000-0 -60075-1 0  9997,2 53790  53.2169 296.0427 0001776  34.5028 305.1344 15.18974249  1309,6887.076,94.801,510.165,507.718,0.0
53790.0,STARLINK-4734,PAYLOAD,2022-11-18 14:00:01,15.17326772,0.0001658,53.2168,293.0075,33.8396,351.3404,-0.06151,-0.01144828,0.0,0 STARLINK-4734,1 53790U 22111T   22322.58334491 -.01144828  00000-0 -61510-1 0  9993,2 53790  53.2168 293.0075 0001658  33.8396 351.3404 15.17326772  1304,6892.061,94.904,515.068,512.783,0.0
53790.0,STARLINK-4734,PAYLOAD,2022-11-18 22:00:00,15.16588962,0.0005857999999999,53.2167,291.4916,272.3886,134.0542,-0.0691389999999999,-0.01251359,0.0,0 STARLINK-4734,1 53790U 22111T   22322.91667824 -.01251359  00000-0 -69139-1 0  9992,2 53790  53.2167 291.4916 0005858 272.3886 134.0542 15.16588962 10702,6894.295999999999,94.95,520.1990000000002,512.122,0.0
53790.0,STARLINK-4734,PAYLOAD,2022-11-19 08:00:01,15.15502393,0.0001633,53.2173,289.6021,46.4572,115.2679,-0.065368,-0.01153794,0.0,0 STARLINK-4734,1 53790U 22111T   22323.33334491 -.01153794  00000-0 -65368-1 0  9994,2 53790  53.2173 289.6021 0001633  46.4572 115.2679 15.15502393 10765,6897.590999999999,95.018,520.582,518.3290000000002,0.0
53790.0,STARLINK-4734,PAYLOAD,2022-11-19 14:00:01,15.14896811,0.0001581,53.2169,288.4677,45.7446,40.3949,-0.066934,-0.0116062,0.0,0 STARLINK-4734,1 53790U 22111T   22323.58334491 -.01160620  00000-0 -66934-1 0  9997,2 53790  53.2169 288.4677 0001581  45.7446  40.3949 15.14896811  1306,6899.429,95.056,522.385,520.203,0.0
53790.0,STARLINK-4734,PAYLOAD,2022-11-19 22:00:00,15.14104396,0.0001663,53.2166,286.9573,52.8859,51.6079,-0.070171,-0.01187362,0.0,0 STARLINK-4734,1 53790U 22111T   22323.91667824 -.01187362  00000-0 -70171-1 0  9993,2 53790  53.2166 286.9573 0001663  52.8859  51.6079 15.14104396  1308,6901.8359999999975,95.106,524.849,522.553,0.0
53790.0,STARLINK-4734,PAYLOAD,2022-11-20 06:00:00,15.13289622,0.0001549,53.217,285.4517,56.5982,65.2836,-0.0717899999999999,-0.01187081,0.0,0 STARLINK-4734,1 53790U 22111T   22324.25001157 -.01187081  00000-0 -71790-1 0  9998,2 53790  53.2170 285.4517 0001549  56.5982  65.2836 15.13289622 10909,6904.313,95.157,527.247,525.109,0.0
53790.0,STARLINK-4734,PAYLOAD,2022-11-20 14:00:01,15.12451211,0.0001706999999999,53.2169,283.9448,47.8997,90.4058,-0.071291,-0.01154141,0.0,0 STARLINK-4734,1 53790U 22111T   22324.58334491 -.01154141  00000-0 -71291-1 0  9991,2 53790  53.2169 283.9448 0001707  47.8997  90.4058 15.12451211  1302,6906.864000000001,95.21,529.908,527.55,0.0
53790.0,STARLINK-4734,PAYLOAD,2022-11-20 22:00:00,15.1163215,0.0001721999999999,53.2175,282.44,50.8739,102.8666,-0.072361,-0.01145598,0.0,0 STARLINK-4734,1 53790U 22111T   22324.91667824 -.01145598  00000-0 -72361-1 0  9992,2 53790  53.2175 282.4400 0001722  50.8739 102.8666 15.11632150  1301,6909.359,95.261,532.414,530.034,0.0
53790.0,STARLINK-4734,PAYLOAD,2022-11-21 08:00:01,15.10613805,0.0001439,53.2171,280.5651,61.3652,200.2895,-0.074268,-0.01143028,0.0,0 STARLINK-4734,1 53790U 22111T   22325.33334491 -.01143028  00000-0 -74268-1 0  9994,2 53790  53.2171 280.5651 0001439  61.3652 200.2895 15.10613805 11066,6912.464,95.325,535.3240000000002,533.3340000000002,0.0
53790.0,STARLINK-4734,PAYLOAD,2022-11-21 14:00:01,15.09969655,0.0001551,53.217,279.4389,46.5042,135.173,-0.069865,-0.01062493,0.0,0 STARLINK-4734,1 53790U 22111T   22325.58334491 -.01062493  00000-0 -69865-1 0  9994,2 53790  53.2170 279.4389 0001551  46.5042 135.1730 15.09969655  1308,6914.43,95.366,537.367,535.222,0.0
53790.0,STARLINK-4734,PAYLOAD,2022-11-21 22:00:00,15.09130123,0.0001565999999999,53.2168,277.9402,41.5823,152.5861,-0.026782,-0.00406327,0.0,0 STARLINK-4734,1 53790U 22111T   22325.91667824 -.00406327  00000-0 -26782-1 0  9998,2 53790  53.2168 277.9402 0001566  41.5823 152.5861 15.09130123 11154,6916.994000000002,95.419,539.942,537.776,0.0
53790.0,STARLINK-4734,PAYLOAD,2022-11-22 08:00:01,15.08823241,0.0001877,53.2151,276.0728,48.9868,249.7322,0.0034093,0.00054365,0.0,0 STARLINK-4734,1 53790U 22111T   22326.33334491  .00054365  00000-0  34093-2 0  9990,2 53790  53.2151 276.0728 0001877  48.9868 249.7322 15.08823241 11219,6917.932,95.439,541.095,538.498,0.0
53790.0,STARLINK-4734,PAYLOAD,2022-11-22 14:00:01,15.0886055,0.0001753,53.2154,274.9488,52.7817,164.6958,-0.00060732,-9.946e-05,0.0,0 STARLINK-4734,1 53790U 22111T   22326.58335648 -.00009946  00000-0 -60732-3 0  9999,2 53790  53.2154 274.9488 0001753  52.7817 164.6958 15.08860550  1305,6917.818,95.436,540.895,538.47,0.0
53790.0,STARLINK-4734,PAYLOAD,2022-11-22 22:00:00,15.08882985,0.0001718,53.2157,273.4523,56.6335,172.3893,-0.0028839,-0.00045947,0.0,0 STARLINK-4734,1 53790U 22111T   22326.91667824 -.00045947  00000-0 -28839-2 0  9992,2 53790  53.2157 273.4523 0001718  56.6335 172.3893 15.08882985 11302,6917.749,95.435,540.802,538.4259999999998,0.0
53790.0,STARLINK-4734,PAYLOAD,2022-11-23 14:00:01,15.08845158,0.0001606,53.2158,270.4594,49.8498,202.399,-0.0026172,-0.00041706,0.0,0 STARLINK-4734,1 53790U 22111T   22327.58334491 -.00041706  00000-0 -26172-2 0  9994,2 53790  53.2158 270.4594 0001606  49.8498 202.3990 15.08845158  1300,6917.865,95.437,540.841,538.619,0.0
53790.0,STARLINK-4734,PAYLOAD,2022-11-23 22:00:00,15.08834128,0.000157,53.216,268.9631,53.2788,210.5465,-0.00025187,-4.294e-05,0.0,0 STARLINK-4734,1 53790U 22111T   22327.91667824 -.00004294  00000-0 -25187-3 0  9997,2 53790  53.2160 268.9631 0001570  53.2788 210.5465 15.08834128  1301,6917.898,95.438,540.849,538.677,0.0
53790.0,STARLINK-4734,PAYLOAD,2022-11-24 00:00:00,15.08841263,0.0001619,53.2159,268.5895,50.6905,306.0294,-0.0014081,-0.00022629,0.0,0 STARLINK-4734,1 53790U 22111T   22328.00001157 -.00022629  00000-0 -14081-2 0  9991,2 53790  53.2159 268.5895 0001619  50.6905 306.0294 15.08841263 11471,6917.877,95.437,540.862,538.622,0.0
53790.0,STARLINK-4734,PAYLOAD,2022-11-24 14:00:01,15.08841055,0.0001585999999999,53.2157,265.9704,51.1664,235.8359,0.00026723,3.968e-05,0.0,0 STARLINK-4734,1 53790U 22111T   22328.58334491  .00003968  00000-0  26723-3 0  9994,2 53790  53.2157 265.9704 0001586  51.1664 235.8359 15.08841055  1301,6917.877,95.437,540.839,538.645,0.0
53790.0,STARLINK-4734,PAYLOAD,2022-11-24 22:00:00,15.08862148,0.0001589,53.2158,264.4743,54.6705,243.922,-0.00057065,-9.364e-05,0.0,0 STARLINK-4734,1 53790U 22111T   22328.91667824 -.00009364  00000-0 -57065-3 0  9991,2 53790  53.2158 264.4743 0001589  54.6705 243.9220 15.08862148  1309,6917.813,95.436,540.7769999999998,538.578,0.0
53790.0,STARLINK-4734,PAYLOAD,2022-11-25 14:00:01,15.08843459,0.0001535,53.2152,261.4814,51.8552,269.9795,0.00024086,3.548e-05,0.0,0 STARLINK-4734,1 53790U 22111T   22329.58334491  .00003548  00000-0  24086-3 0  9999,2 53790  53.2152 261.4814 0001535  51.8552 269.9795 15.08843459  1308,6917.87,95.437,540.797,538.673,0.0
53790.0,STARLINK-4734,PAYLOAD,2022-11-25 22:00:00,15.08865086,0.0001554,53.2151,259.9854,53.9394,279.4885,-0.00075145,-0.00012236,0.0,0 STARLINK-4734,1 53790U 22111T   22329.91667824 -.00012236  00000-0 -75145-3 0  9993,2 53790  53.2151 259.9854 0001554  53.9394 279.4885 15.08865086 11768,6917.804,95.436,540.744,538.594,0.0
53790.0,STARLINK-4734,PAYLOAD,2022-11-26 14:00:01,15.08841516,0.0001639,53.2145,256.9923,54.7137,301.9654,-0.00028216,-4.776e-05,0.0,0 STARLINK-4734,1 53790U 22111T   22330.58334491 -.00004776  00000-0 -28216-3 0  9996,2 53790  53.2145 256.9923 0001639  54.7137 301.9654 15.08841516  1309,6917.876,95.437,540.875,538.607,0.0
53790.0,STARLINK-4734,PAYLOAD,2022-11-26 22:00:00,15.08842871,0.0001683,53.2144,255.4965,55.3548,312.916,-0.0015495,-0.00024866,0.0,0 STARLINK-4734,1 53790U 22111T   22330.91667824 -.00024866  00000-0 -15495-2 0  9998,2 53790  53.2144 255.4965 0001683  55.3548 312.9160 15.08842871  1309,6917.871999999999,95.437,540.901,538.572,0.0
53790.0,STARLINK-4734,PAYLOAD,2022-11-27 06:00:00,15.08821176,0.0001769,53.2141,254.0013,47.6824,332.1795,0.0014482,0.00022823,0.0,0 STARLINK-4734,1 53790U 22111T   22331.25001157  .00022823  00000-0  14482-2 0  9991,2 53790  53.2141 254.0013 0001769  47.6824 332.1795 15.08821176 11967,6917.938,95.439,541.0269999999998,538.5790000000002,0.0
